[{"OBJECT_NAME":"QIANFAN-58","OBJECT_ID":"2025-016D","EPOCH":"2026-03-09T21:29:21.067008","MEAN_MOTION":13.5099893,"ECCENTRICITY":0.00160444,"INCLINATION":88.9663,"RA_OF_ASC_NODE":93.9883,"ARG_OF_PERICENTER":92.0649,"MEAN_ANOMALY":268.234,"EPHEMERIS_TYPE":0,"CLASSIFICATION_TYPE":"U","NORAD_CAT_ID":62788,"ELEMENT_SET_NO":999,"REV_AT_EPOCH":5901,"BSTAR":4.610521e-5,"MEAN_MOTION_DOT":4.2e-7,"MEAN_MOTION_DDOT":0},{"OBJECT_NAME":"DELTA 1 DEB","OBJECT_ID":"1975-052GW","EPOCH":"2026-03-09T15:25:32.811168","MEAN_MOTION":13.38507641,"ECCENTRICITY":0.0049388,"INCLINATION":100.2933,"RA_OF_ASC_NODE":308.8697,"ARG_OF_PERICENTER":256.2679,"MEAN_ANOMALY":162.1096,"EPHEMERIS_TYPE":0,"CLASSIFICATION_TYPE":"U","NORAD_CAT_ID":21542,"ELEMENT_SET_NO":999,"REV_AT_EPOCH":69975,"BSTAR":0.00050607,"MEAN_MOTION_DOT":2.24e-6,"MEAN_MOTION_DDOT":0}]
